OBJECT_NAME,OBJECT_ID,EPOCH,MEAN_MOTION,ECCENTRICITY,INCLINATION,RA_OF_ASC_NODE,ARG_OF_PERICENTER,MEAN_ANOMALY,EPHEMERIS_TYPE,CLASSIFICATION_TYPE,NORAD_CAT_ID,ELEMENT_SET_NO,REV_AT_EPOCH,BSTAR,MEAN_MOTION_DOT,MEAN_MOTION_DDOT
STARLINK-2388,2021-018W,2025-10-27T20:20:32.124192,15.06385689,.0001627,53.0536,97.9695,90.8827,269.2349,0,U,47807,999,25698,.17323049E-4,-.24E-6,0
STARLINK-2389,2021-018X,2025-10-27T13:04:35.349312,15.06403320,.00020521,53.0535,124.3267,94.9781,265.1442,0,U,47808,999,25665,-.48857303E-4,-.1009E-4,0
STARLINK-2391,2021-018Z,2025-10-27T13:47:43.876032,15.06399627,.00014651,53.0543,139.1961,88.1701,271.9456,0,U,47810,999,25644,.12922896E-3,.1644E-4,0
STARLINK-2393,2021-018AB,2025-10-27T20:00:01.000224,15.51939394,.00013196,53.0541,134.1224,79.4612,28.1309,0,U,47812,999,578,.1749336E-1,.1171252E-1,0
STARLINK-2395,2021-018AD,2025-10-27T12:40:03.569376,15.06397956,.00013886,53.0529,129.4053,85.5077,274.6071,0,U,47814,999,25658,.19497377E-4,.9E-7,0
STARLINK-2396,2021-018AE,2025-10-27T21:23:32.311680,15.06396440,.00013794,53.0537,122.7741,96.8987,263.2159,0,U,47815,999,25664,.29572116E-4,.159E-5,0
STARLINK-2399,2021-018AF,2025-10-27T20:00:35.803008,15.06401558,.00013415,53.0538,128.0315,95.6268,264.4874,0,U,47816,999,25656,.61705535E-4,.638E-5,0
STARLINK-2400,2021-018AG,2025-10-27T12:29:26.918016,15.06399891,.00015552,53.0530,129.4372,85.9289,274.1877,0,U,47817,999,25651,.81121968E-4,.927E-5,0
STARLINK-2401,2021-018AH,2025-10-27T20:34:31.117440,15.06406477,.0001607,53.0532,133.3946,89.4609,270.6564,0,U,47818,999,25649,.1429704E-3,.1849E-4,0
STARLINK-2402,2021-018AJ,2025-10-27T12:33:23.234976,15.06402823,.00014249,53.0539,129.4163,92.1461,267.9691,0,U,47819,999,25658,.13488823E-3,.1728E-4,0
STARLINK-2406,2021-018AL,2025-10-27T13:11:54.166272,15.06403658,.00014552,53.0532,129.3163,92.9595,267.1560,0,U,47821,999,25652,.48817941E-4,.446E-5,0
STARLINK-2407,2021-018AM,2025-10-27T19:47:18.270528,15.06400042,.00014494,53.0530,138.0634,85.4130,274.7025,0,U,47822,999,25643,.81506499E-4,.933E-5,0
STARLINK-2408,2021-018AN,2025-10-27T20:09:51.545088,15.06397599,.00014703,53.0527,127.9937,91.1916,268.9241,0,U,47823,999,25657,.46255115E-4,.408E-5,0
STARLINK-2409,2021-018AP,2025-10-27T19:55:17.081184,15.06403444,.00014582,53.0544,128.0482,100.4699,259.6455,0,U,47824,999,25656,.48628188E-4,.443E-5,0
STARLINK-2410,2021-018AQ,2025-10-27T20:21:49.787424,15.06408528,.00014873,53.0522,127.9669,100.1727,259.9430,0,U,47825,999,25657,.12225293E-3,.154E-4,0
STARLINK-2411,2021-018AR,2025-10-27T20:16:31.662624,15.06393430,.00017218,53.0530,127.9807,101.0660,259.0522,0,U,47826,999,25657,.19003946E-3,.255E-4,0
STARLINK-2413,2021-018AS,2025-10-27T19:51:21.179808,15.06410693,.00013015,53.0534,118.3003,89.7042,270.4096,0,U,47827,999,25676,.72797417E-4,.803E-5,0
STARLINK-2415,2021-018AT,2025-10-27T19:53:58.096032,15.06401498,.00013928,53.0532,138.0534,87.5591,272.5558,0,U,47828,999,25643,.64775737E-4,.684E-5,0
STARLINK-2419,2021-018AV,2025-10-27T20:15:11.661408,15.06398929,.00015352,53.0546,137.9806,100.7283,259.3879,0,U,47830,999,25642,.89589534E-4,.1053E-4,0
STARLINK-2420,2021-018AW,2025-10-27T12:18:09.569664,15.06400577,.00015071,53.0553,114.4715,95.8887,264.2274,0,U,47831,999,25678,.34827633E-4,.237E-5,0
STARLINK-2422,2021-018AX,2025-10-27T12:50:38.804640,15.06420309,.00010498,53.0514,129.3715,99.0719,261.0389,0,U,47832,999,25652,.73252193E-4,.81E-5,0
STARLINK-2423,2021-018AY,2025-10-27T05:30:07.155936,15.06394945,.0001407,53.0530,130.7454,79.6887,280.4260,0,U,47833,999,25653,-.56808E-4,-.1127E-4,0
STARLINK-2424,2021-018AZ,2025-10-27T20:05:54.696768,15.06400008,.00015107,53.0524,128.0159,93.5231,266.5930,0,U,47834,999,25662,.30257795E-4,.169E-5,0
STARLINK-2426,2021-018BB,2025-10-27T12:34:46.197120,15.06399568,.00014003,53.0534,129.5090,91.4129,268.7020,0,U,47836,999,25652,.91506985E-4,.1082E-4,0
STARLINK-2427,2021-018BC,2025-10-27T04:50:19.235328,15.06399338,.0001525,53.0538,110.8701,86.0461,274.0702,0,U,47837,999,25676,.48397E-4,.439E-5,0
STARLINK-2429,2021-018BD,2025-10-26T22:46:44.213376,15.06399818,.0001253,53.0528,132.0037,87.8902,272.2230,0,U,47838,999,25643,.39892E-4,.313E-5,0
STARLINK-2431,2021-018BE,2025-10-27T20:09:52.845408,15.06401580,.00013052,53.0538,98.0030,90.3734,269.7404,0,U,47839,999,25700,.65564625E-4,.695E-5,0
STARLINK-2432,2021-018BF,2025-10-27T20:24:28.983744,15.06401322,.00013236,53.0539,107.9584,90.5746,269.5395,0,U,47840,999,25685,.43103108E-4,.361E-5,0
STARLINK-2433,2021-018BG,2025-10-27T20:19:10.794144,15.06410260,.00012684,53.0540,107.9719,94.0537,266.0597,0,U,47841,999,25685,.13902542E-3,.1791E-4,0
STARLINK-2435,2021-018BJ,2025-10-27T12:57:59.027328,15.06396299,.00014594,53.0531,134.3485,90.7528,269.3628,0,U,47843,999,25647,.10725749E-3,.1316E-4,0
