STARLINK-2388           
1 47807U 21018W   25300.84759403 -.00000024  00000+0  17323-4 0  9994
2 47807  53.0536  97.9695 0001627  90.8827 269.2349 15.06385689256981
STARLINK-2389           
1 47808U 21018X   25300.54485358 -.00001009  00000+0 -48857-4 0  9998
2 47808  53.0535 124.3267 0002052  94.9781 265.1442 15.06403320256654
STARLINK-2391           
1 47810U 21018Z   25300.57481338  .00001644  00000+0  12923-3 0  9995
2 47810  53.0543 139.1961 0001465  88.1701 271.9456 15.06399627256446
STARLINK-2393           
1 47812U 21018AB  25300.83334491  .01171252  00000+0  17493-1 0  9992
2 47812  53.0541 134.1224 0001319  79.4612  28.1309 15.51939394  5784
STARLINK-2395           
1 47814U 21018AD  25300.52781909  .00000009  00000+0  19497-4 0  9999
2 47814  53.0529 129.4053 0001388  85.5077 274.6071 15.06397956256580
STARLINK-2396           
1 47815U 21018AE  25300.89134620  .00000159  00000+0  29572-4 0  9993
2 47815  53.0537 122.7741 0001379  96.8987 263.2159 15.06396440256640
STARLINK-2399           
1 47816U 21018AF  25300.83374772  .00000638  00000+0  61706-4 0  9999
2 47816  53.0538 128.0315 0001341  95.6268 264.4874 15.06401558256561
STARLINK-2400           
1 47817U 21018AG  25300.52045044  .00000927  00000+0  81122-4 0  9998
2 47817  53.0530 129.4372 0001555  85.9289 274.1877 15.06399891256516
STARLINK-2401           
1 47818U 21018AH  25300.85730460  .00001849  00000+0  14297-3 0  9990
2 47818  53.0532 133.3946 0001607  89.4609 270.6564 15.06406477256493
STARLINK-2402           
1 47819U 21018AJ  25300.52318559  .00001728  00000+0  13489-3 0  9994
2 47819  53.0539 129.4163 0001424  92.1461 267.9691 15.06402823256583
STARLINK-2406           
1 47821U 21018AL  25300.54993248  .00000446  00000+0  48818-4 0  9994
2 47821  53.0532 129.3163 0001455  92.9595 267.1560 15.06403658256526
STARLINK-2407           
1 47822U 21018AM  25300.82451702  .00000933  00000+0  81506-4 0  9992
2 47822  53.0530 138.0634 0001449  85.4130 274.7025 15.06400042256434
STARLINK-2408           
1 47823U 21018AN  25300.84017992  .00000408  00000+0  46255-4 0  9993
2 47823  53.0527 127.9937 0001470  91.1916 268.9241 15.06397599256576
STARLINK-2409           
1 47824U 21018AP  25300.83005881  .00000443  00000+0  48628-4 0  9992
2 47824  53.0544 128.0482 0001458 100.4699 259.6455 15.06403444256561
STARLINK-2410           
1 47825U 21018AQ  25300.84849291  .00001540  00000+0  12225-3 0  9997
2 47825  53.0522 127.9669 0001487 100.1727 259.9430 15.06408528256579
STARLINK-2411           
1 47826U 21018AR  25300.84481091  .00002550  00000+0  19004-3 0  9992
2 47826  53.0530 127.9807 0001721 101.0660 259.0522 15.06393430256578
STARLINK-2413           
1 47827U 21018AS  25300.82732847  .00000803  00000+0  72797-4 0  9997
2 47827  53.0534 118.3003 0001301  89.7042 270.4096 15.06410693256760
STARLINK-2415           
1 47828U 21018AT  25300.82914463  .00000684  00000+0  64776-4 0  9999
2 47828  53.0532 138.0534 0001392  87.5591 272.5558 15.06401498256435
STARLINK-2419           
1 47830U 21018AV  25300.84388497  .00001053  00000+0  89590-4 0  9998
2 47830  53.0546 137.9806 0001535 100.7283 259.3879 15.06398929256420
STARLINK-2420           
1 47831U 21018AW  25300.51261076  .00000237  00000+0  34828-4 0  9993
2 47831  53.0553 114.4715 0001507  95.8887 264.2274 15.06400577256787
STARLINK-2422           
1 47832U 21018AX  25300.53517135  .00000810  00000+0  73252-4 0  9997
2 47832  53.0514 129.3715 0001049  99.0719 261.0389 15.06420309256520
STARLINK-2423           
1 47833U 21018AY  25300.22924949 -.00001127  00000+0 -56808-4 0  9991
2 47833  53.0530 130.7454 0001407  79.6887 280.4260 15.06394945256533
STARLINK-2424           
1 47834U 21018AZ  25300.83743862  .00000169  00000+0  30258-4 0  9996
2 47834  53.0524 128.0159 0001510  93.5231 266.5930 15.06400008256629
STARLINK-2426           
1 47836U 21018BB  25300.52414580  .00001082  00000+0  91507-4 0  9995
2 47836  53.0534 129.5090 0001400  91.4129 268.7020 15.06399568256524
STARLINK-2427           
1 47837U 21018BC  25300.20161152  .00000439  00000+0  48397-4 0  9999
2 47837  53.0538 110.8701 0001525  86.0461 274.0702 15.06399338256766
STARLINK-2429           
1 47838U 21018BD  25299.94912284  .00000313  00000+0  39892-4 0  9999
2 47838  53.0528 132.0037 0001253  87.8902 272.2230 15.06399818256434
STARLINK-2431           
1 47839U 21018BE  25300.84019497  .00000695  00000+0  65565-4 0  9995
2 47839  53.0538  98.0030 0001305  90.3734 269.7404 15.06401580257008
STARLINK-2432           
1 47840U 21018BF  25300.85033546  .00000361  00000+0  43103-4 0  9993
2 47840  53.0539 107.9584 0001323  90.5746 269.5395 15.06401322256853
STARLINK-2433           
1 47841U 21018BG  25300.84665271  .00001791  00000+0  13903-3 0  9991
2 47841  53.0540 107.9719 0001268  94.0537 266.0597 15.06410260256858
STARLINK-2435           
1 47843U 21018BJ  25300.54026652  .00001316  00000+0  10726-3 0  9997
2 47843  53.0531 134.3485 0001459  90.7528 269.3628 15.06396299256473
